{"fetched_at":"2026-03-29T02:12:04Z","count":15717,"tles":[{"name":"BEIDOU-3 M8 (C28)","line1":"1 43108U 18003B   26085.06782058 -.00000032  00000+0  00000+0 0  9999","line2":"2 43108  54.3941 305.1962 0002517 294.5900  65.4209  1.86230888 55813","category":"GPS"}]}